{
  "norad_id": 41725,
  "name": "TIANTONG-1 1",
  "history": [
    {
      "epoch": "2026-03-26T19:30:49.279968",
      "apogee_km": 35813.03420780719,
      "perigee_km": 35761.64545457395,
      "latitude_deg": 0.1772365532947024,
      "longitude_deg": 38.55475552007556,
      "semi_major_axis_km": 42165.47683119057,
      "eccentricity": 0.00060937,
      "inclination_deg": 3.6935,
      "raan_deg": 42.6533,
      "arg_perigee_deg": 5.0421,
      "mean_anomaly_deg": 170.6244,
      "mean_motion_rev_day": 1.00269128
    }
  ]
}