TIANTONG-1 1            
1 41725U 16048A   26085.81307037 -.00000331  00000+0  00000+0 0  9994
2 41725   3.6935  42.6533 0006093   5.0421 170.6244  1.00269128 35449
